ONEWEB-0517             
1 54135U 22138Y   23287.60638917  .00000118  00000+0  26264-3 0  9998
2 54135  87.9208 139.3456 0002060  79.9366 280.1999 13.19721024 48025
ONEWEB-0518             
1 54136U 22138Z   23287.54952606  .00000170  00000+0  39344-3 0  9997
2 54136  87.9203 139.3568 0001807  85.2798 274.8541 13.19725868 48014
ONEWEB-0519             
1 54137U 22138AA  23287.57481416  .00000013  00000+0 -66444-6 0  9998
2 54137  87.9207 139.3504 0002150  80.6581 279.4794 13.19725635 48024
ONEWEB-0520             
1 54138U 22138AB  23287.53374729 -.00000011  00000+0 -59331-4 0  9997
2 54138  87.9205 139.3605 0002169  70.4838 289.6528 13.19725584 48006
ONEWEB-0521             
1 54139U 22138AC  23287.56688748  .00000073  00000+0  15007-3 0  9997
2 54139  87.9203 139.3506 0001789  91.3091 268.8246 13.19726956 47958
ONEWEB-0522             
1 54140U 22138AD  23287.54636978  .00000076  00000+0  15627-3 0  9996
2 54140  87.9204 139.3568 0001695  75.6955 284.4366 13.19724560 47999
ONEWEB-0523             
1 54141U 22138AE  23287.52597862  .00000067  00000+0  13207-3 0  9995
2 54141  87.9150 108.8755 0000917 130.9433 229.1780 13.20773449 50386
ONEWEB-0524             
1 54142U 22138AF  23287.51336345  .00000199  00000+0  45842-3 0  9998
2 54142  87.9182 108.8614 0000889  41.9771 318.1431 13.20771790 50389
